[{"OBJECT_NAME":"OUTPOST MISSION 1","OBJECT_ID":"2023-084BK","EPOCH":"2026-03-09T23:19:35.444064","MEAN_MOTION":15.70083334,"ECCENTRICITY":0.00047289,"INCLINATION":97.5968,"RA_OF_ASC_NODE":222.1792,"ARG_OF_PERICENTER":254.2575,"MEAN_ANOMALY":105.8165,"EPHEMERIS_TYPE":0,"CLASSIFICATION_TYPE":"U","NORAD_CAT_ID":56226,"ELEMENT_SET_NO":999,"REV_AT_EPOCH":15332,"BSTAR":0.000839791,"MEAN_MOTION_DOT":0.00102103,"MEAN_MOTION_DDOT":0},{"OBJECT_NAME":"STARLINK-11149 [DTC]","OBJECT_ID":"2024-112D","EPOCH":"2026-03-09T20:20:33.538560","MEAN_MOTION":15.69701496,"ECCENTRICITY":9.29e-5,"INCLINATION":53.1576,"RA_OF_ASC_NODE":265.6491,"ARG_OF_PERICENTER":86.3558,"MEAN_ANOMALY":273.7566,"EPHEMERIS_TYPE":0,"CLASSIFICATION_TYPE":"U","NORAD_CAT_ID":60041,"ELEMENT_SET_NO":999,"REV_AT_EPOCH":10100,"BSTAR":4.80967e-6,"MEAN_MOTION_DOT":-6.0e-8,"MEAN_MOTION_DDOT":0}]
