OUTPOST MISSION 1       
1 56226U 23084BK  26068.97193801  .00102103  00000+0  83979-3 0  9993
2 56226  97.5968 222.1792 0004729 254.2575 105.8165 15.70083334153328
STARLINK-11149 [DTC]    
1 60041U 24112D   26068.84761040 -.00000006  00000+0  48097-5 0  9992
2 60041  53.1576 265.6491 0000929  86.3558 273.7566 15.69701496101004
